[{"OBJECT_NAME":"TEVEL2-1","OBJECT_ID":"2025-052H","EPOCH":"2026-03-09T15:32:51.927072","MEAN_MOTION":15.30341923,"ECCENTRICITY":0.0004767,"INCLINATION":97.3991,"RA_OF_ASC_NODE":324.7682,"ARG_OF_PERICENTER":104.8919,"MEAN_ANOMALY":255.2849,"EPHEMERIS_TYPE":0,"CLASSIFICATION_TYPE":"U","NORAD_CAT_ID":63217,"ELEMENT_SET_NO":999,"REV_AT_EPOCH":5485,"BSTAR":0.000706,"MEAN_MOTION_DOT":0.00020683,"MEAN_MOTION_DDOT":0},{"OBJECT_NAME":"STARLINK-33737","OBJECT_ID":"2025-069Z","EPOCH":"2026-03-09T11:28:32.822688","MEAN_MOTION":15.3018768,"ECCENTRICITY":9.607e-5,"INCLINATION":53.1584,"RA_OF_ASC_NODE":143.342,"ARG_OF_PERICENTER":92.8182,"MEAN_ANOMALY":267.2928,"EPHEMERIS_TYPE":0,"CLASSIFICATION_TYPE":"U","NORAD_CAT_ID":63456,"ELEMENT_SET_NO":999,"REV_AT_EPOCH":5326,"BSTAR":0.00076330674,"MEAN_MOTION_DOT":0.00022307,"MEAN_MOTION_DDOT":0}]
